OBJECT_NAME,OBJECT_ID,EPOCH,MEAN_MOTION,ECCENTRICITY,INCLINATION,RA_OF_ASC_NODE,ARG_OF_PERICENTER,MEAN_ANOMALY,EPHEMERIS_TYPE,CLASSIFICATION_TYPE,NORAD_CAT_ID,ELEMENT_SET_NO,REV_AT_EPOCH,BSTAR,MEAN_MOTION_DOT,MEAN_MOTION_DDOT
STARLINK-37537,2026-126A,2026-06-26T13:49:01.007904,15.75289200,.0001403,97.2833,38.0134,120.9135,239.2269,0,U,69420,999,422,.16845E-2,.260036E-2,0
STARLINK-37585,2026-126B,2026-06-26T13:33:46.126944,15.75266543,.0001696,97.2844,38.0292,112.6299,247.5145,0,U,69421,999,422,.11637E-2,.177697E-2,0
STARLINK-37573,2026-126C,2026-06-26T06:16:11.881632,15.75197573,.0002503,97.2845,37.6765,103.8222,256.3322,0,U,69422,999,417,.17112E-2,.263235E-2,0
STARLINK-37820,2026-126D,2026-06-26T09:48:38.356992,15.79991998,.0000954,97.2842,37.9353,101.4073,258.7301,0,U,69423,999,420,.11332E-2,.214167E-2,0
STARLINK-37822,2026-126E,2026-06-26T13:06:50.306976,15.75298137,.0002777,97.2838,38.0533,84.7720,275.3862,0,U,69424,999,422,.16284E-2,.251218E-2,0
STARLINK-37836,2026-126F,2026-06-26T08:16:55.197984,15.79930914,.0001632,97.2843,37.8694,81.7999,278.3454,0,U,69425,999,419,.34995E-3,.64729E-3,0
STARLINK-37850,2026-126G,2026-06-26T16:00:03.000096,15.80394035,.0001372,97.2835,38.2098,80.8790,308.2955,0,U,69426,999,429,-.93857E-2,-.1550124E-1,0
STARLINK-37823,2026-126H,2026-06-26T16:00:03.000096,15.75215836,.0001628,97.2844,38.1656,91.5166,194.2600,0,U,69427,999,424,-.37045E-3,-.55093E-3,0
STARLINK-37834,2026-126J,2026-06-26T13:28:10.687584,15.75293808,.0001305,97.2846,38.0343,112.4118,247.7285,0,U,69428,999,422,.18809E-2,.291519E-2,0
STARLINK-37857,2026-126K,2026-06-26T16:00:03.000096,15.75223620,.0001404,97.2837,38.1737,92.2929,209.4887,0,U,69429,999,424,-.48771E-3,-.72368E-3,0
STARLINK-37866,2026-126L,2026-06-26T09:46:52.752000,15.81198226,.0018838,97.2857,37.9371,13.3404,346.8359,0,U,69430,999,425,.17383E-1,.4058567E-1,0
STARLINK-37555,2026-126M,2026-06-26T03:41:12.562368,15.79964663,.0008402,97.2841,37.6700,206.2424,153.8420,0,U,69431,999,421,.98220987E-3,.185119E-2,0
STARLINK-37870,2026-126N,2026-06-26T08:15:45.503424,15.78013687,.0006587,97.2837,37.8703,56.6543,303.5354,0,U,69432,999,419,.18129E-2,.317721E-2,0
STARLINK-37872,2026-126P,2026-06-26T16:00:03.000096,15.80057801,.0001282,97.2833,38.2127,95.8296,300.5592,0,U,69433,999,424,-.12637E-2,-.227965E-2,0
STARLINK-37815,2026-126Q,2026-06-26T18:13:48.029952,15.75206595,.0001096,97.2829,38.2226,73.5386,286.5999,0,U,69434,999,425,.1398E-2,.213843E-2,0
STARLINK-37801,2026-126R,2026-06-26T16:00:03.000096,15.75226813,.0001528,97.2843,38.1628,87.6807,186.0968,0,U,69435,999,429,-.58805E-3,-.87094E-3,0
STARLINK-37800,2026-126S,2026-06-26T13:22:04.901952,15.75302156,.0001293,97.2844,38.0402,112.1326,248.0076,0,U,69436,999,422,.1901E-2,.294856E-2,0
STARLINK-37792,2026-126T,2026-06-26T14:18:36.944352,15.80096680,.0001932,97.2835,38.1401,135.1351,225.0073,0,U,69437,999,428,.19279E-2,.37301E-2,0
STARLINK-37783,2026-126U,2026-06-26T08:13:16.999104,15.80034331,.0001821,97.2839,37.8726,80.1204,280.0270,0,U,69438,999,424,.17559E-2,.337355E-2,0
STARLINK-37771,2026-126V,2026-06-25T13:21:46.147968,15.75250843,.0001316,97.2847,36.9513,102.8109,257.3303,0,U,69439,999,406,.11426E-2,.174281E-2,0
STARLINK-37747,2026-126W,2026-06-26T17:35:10.673088,15.75253148,.0001072,97.2839,38.2602,45.8596,314.2757,0,U,69440,999,425,.11529E-2,.175902E-2,0
STARLINK-37629,2026-127A,2026-06-26T16:00:03.000096,15.75265067,.0001076,53.1585,215.3031,80.5757,112.0506,0,U,69443,999,416,-.33315E-3,-.51454E-3,0
STARLINK-37509,2026-127B,2026-06-26T16:00:03.000096,15.75273244,.0001122,53.1591,215.2539,70.9259,145.5895,0,U,69444,999,416,-.45434E-3,-.69815E-3,0
STARLINK-37641,2026-127C,2026-06-26T16:16:24.503232,15.75285816,.0001434,53.1586,215.0341,138.7369,221.3760,0,U,69445,999,290,.89843E-3,.13966E-2,0
STARLINK-37522,2026-127D,2026-06-26T16:00:03.000096,15.75268644,.0001195,53.1592,215.2499,79.8623,138.5171,0,U,69446,999,416,-.40013E-3,-.61609E-3,0
STARLINK-37640,2026-127E,2026-06-26T14:26:19.942944,15.78531032,.0000725,53.1582,215.2618,143.2736,216.8335,0,U,69447,999,289,-.56584E-2,-.904148E-2,0
STARLINK-37572,2026-127F,2026-06-26T16:00:03.000096,15.75246093,.0001144,53.1591,215.1472,71.8744,196.1595,0,U,69448,999,416,-.15244E-3,-.23947E-3,0
STARLINK-37643,2026-127G,2026-06-26T16:00:03.000096,15.75278364,.0001236,53.1593,215.1999,71.2129,171.0544,0,U,69449,999,416,-.51858E-3,-.79525E-3,0
STARLINK-37601,2026-127H,2026-06-26T10:24:02.246112,15.75261768,.0001244,53.1601,216.3539,90.6704,269.4459,0,U,69450,999,286,.89966E-3,.139706E-2,0
STARLINK-37578,2026-127J,2026-06-26T16:00:03.000096,15.75185548,.000123,53.1576,215.0378,82.7672,238.6843,0,U,69451,999,416,.30723E-3,.46604E-3,0
