STARLINK-37537          
1 69420U 26126A   26177.57570611  .00260036  00000+0  16845-2 0  9995
2 69420  97.2833  38.0134 0001403 120.9135 239.2269 15.75289200  4223
STARLINK-37585          
1 69421U 26126B   26177.56511721  .00177697  00000+0  11637-2 0  9996
2 69421  97.2844  38.0292 0001696 112.6299 247.5145 15.75266543  4224
STARLINK-37573          
1 69422U 26126C   26177.26124863  .00263235  00000+0  17112-2 0  9999
2 69422  97.2845  37.6765 0002503 103.8222 256.3322 15.75197573  4177
STARLINK-37820          
1 69423U 26126D   26177.40877728  .00214167  00000+0  11332-2 0  9999
2 69423  97.2842  37.9353 0000954 101.4073 258.7301 15.79991998  4201
STARLINK-37822          
1 69424U 26126E   26177.54641559  .00251218  00000+0  16284-2 0  9995
2 69424  97.2838  38.0533 0002777  84.7720 275.3862 15.75298137  4226
STARLINK-37836          
1 69425U 26126F   26177.34508331  .00064729  00000+0  34995-3 0  9993
2 69425  97.2843  37.8694 0001632  81.7999 278.3454 15.79930914  4198
STARLINK-37850          
1 69426U 26126G   26177.66670139 -.01550124  00000+0 -93857-2 0  9998
2 69426  97.2835  38.2098 0001372  80.8790 308.2955 15.80394035  4293
STARLINK-37823          
1 69427U 26126H   26177.66670139 -.00055093  00000+0 -37045-3 0  9991
2 69427  97.2844  38.1656 0001628  91.5166 194.2600 15.75215836  4243
STARLINK-37834          
1 69428U 26126J   26177.56123481  .00291519  00000+0  18809-2 0  9993
2 69428  97.2846  38.0343 0001305 112.4118 247.7285 15.75293808  4226
STARLINK-37857          
1 69429U 26126K   26177.66670139 -.00072368  00000+0 -48771-3 0  9995
2 69429  97.2837  38.1737 0001404  92.2929 209.4887 15.75223620  4240
STARLINK-37866          
1 69430U 26126L   26177.40755500  .04058567  00000+0  17383-1 0  9995
2 69430  97.2857  37.9371 0018838  13.3404 346.8359 15.81198226  4257
STARLINK-37555          
1 69431U 26126M   26177.15361762  .00185119  00000+0  98221-3 0  9993
2 69431  97.2841  37.6700 0008402 206.2424 153.8420 15.79964663  4219
STARLINK-37870          
1 69432U 26126N   26177.34427666  .00317721  00000+0  18129-2 0  9995
2 69432  97.2837  37.8703 0006587  56.6543 303.5354 15.78013687  4198
STARLINK-37872          
1 69433U 26126P   26177.66670139 -.00227965  00000+0 -12637-2 0  9996
2 69433  97.2833  38.2127 0001282  95.8296 300.5592 15.80057801  4243
STARLINK-37815          
1 69434U 26126Q   26177.75958368  .00213843  00000+0  13980-2 0  9990
2 69434  97.2829  38.2226 0001096  73.5386 286.5999 15.75206595  4250
STARLINK-37801          
1 69435U 26126R   26177.66670139 -.00087094  00000+0 -58805-3 0  9993
2 69435  97.2843  38.1628 0001528  87.6807 186.0968 15.75226813  4295
STARLINK-37800          
1 69436U 26126S   26177.55700118  .00294856  00000+0  19010-2 0  9991
2 69436  97.2844  38.0402 0001293 112.1326 248.0076 15.75302156  4222
STARLINK-37792          
1 69437U 26126T   26177.59626093  .00373010  00000+0  19279-2 0  9992
2 69437  97.2835  38.1401 0001932 135.1351 225.0073 15.80096680  4282
STARLINK-37783          
1 69438U 26126U   26177.34255786  .00337355  00000+0  17559-2 0  9994
2 69438  97.2839  37.8726 0001821  80.1204 280.0270 15.80034331  4247
STARLINK-37771          
1 69439U 26126V   26176.55678412  .00174281  00000+0  11426-2 0  9996
2 69439  97.2847  36.9513 0001316 102.8109 257.3303 15.75250843  4062
STARLINK-37747          
1 69440U 26126W   26177.73276242  .00175902  00000+0  11529-2 0  9999
2 69440  97.2839  38.2602 0001072  45.8596 314.2757 15.75253148  4252
STARLINK-37629          
1 69443U 26127A   26177.66670139 -.00051454  00000+0 -33315-3 0  9993
2 69443  53.1585 215.3031 0001076  80.5757 112.0506 15.75265067  4166
STARLINK-37509          
1 69444U 26127B   26177.66670139 -.00069815  00000+0 -45434-3 0  9999
2 69444  53.1591 215.2539 0001122  70.9259 145.5895 15.75273244  4166
STARLINK-37641          
1 69445U 26127C   26177.67806138  .00139660  00000+0  89843-3 0  9997
2 69445  53.1586 215.0341 0001434 138.7369 221.3760 15.75285816  2903
STARLINK-37522          
1 69446U 26127D   26177.66670139 -.00061609  00000+0 -40013-3 0  9992
2 69446  53.1592 215.2499 0001195  79.8623 138.5171 15.75268644  4164
STARLINK-37640          
1 69447U 26127E   26177.60161971 -.00904148  00000+0 -56584-2 0  9999
2 69447  53.1582 215.2618 0000725 143.2736 216.8335 15.78531032  2893
STARLINK-37572          
1 69448U 26127F   26177.66670139 -.00023947  00000+0 -15244-3 0  9995
2 69448  53.1591 215.1472 0001144  71.8744 196.1595 15.75246093  4169
STARLINK-37643          
1 69449U 26127G   26177.66670139 -.00079525  00000+0 -51858-3 0  9990
2 69449  53.1593 215.1999 0001236  71.2129 171.0544 15.75278364  4161
STARLINK-37601          
1 69450U 26127H   26177.43335933  .00139706  00000+0  89966-3 0  9994
2 69450  53.1601 216.3539 0001244  90.6704 269.4459 15.75261768  2861
STARLINK-37578          
1 69451U 26127J   26177.66670139  .00046604  00000+0  30723-3 0  9991
2 69451  53.1576 215.0378 0001230  82.7672 238.6843 15.75185548  4162
